start=new Date('2022-12-20T00:00:00.000Z').valueOf();
sats=[{"BSTAR":"0.00009103800000","OBJECT_TYPE":"PAYLOAD","APOAPSIS":"541.286","NORAD_CAT_ID":"53540","ARG_OF_PERICENTER":"25.9925","EPOCH":"2022-12-19T06:42:28.769760","OBJECT_NAME":"STARLINK-4486","MEAN_ELEMENT_THEORY":"SGP4","PERIOD":"95.438","ELEMENT_SET_NO":"999","RCS_SIZE":"LARGE","TLE_LINE1":"1 53540U 22101P   22353.27949965  .00001161  00000-0  91038-4 0  9993","SITE":"AFETR","INCLINATION":"53.2161","TLE_LINE2":"2 53540  53.2161 305.2253 0002200  25.9925 334.1177 15.08833775 19398","COUNTRY_CODE":"US","MEAN_ANOMALY":"334.1177","SEMIMAJOR_AXIS":"6917.899","OBJECT_ID":"2022-101P","EPHEMERIS_TYPE":"0","ECCENTRICITY":"0.00022000","DECAY_DATE":null,"CLASSIFICATION_TYPE":"U","GP_ID":"220938195","FILE":"3711365","MEAN_MOTION":"15.08833775","PERIAPSIS":"538.242","MEAN_MOTION_DOT":"0.00001161","LAUNCH_DATE":"2022-08-19","MEAN_MOTION_DDOT":"0.0000000000000","RA_OF_ASC_NODE":"305.2253","REF_FRAME":"TEME","REV_AT_EPOCH":"1939","CENTER_NAME":"EARTH","TIME_SYSTEM":"UTC"},{"RA_OF_ASC_NODE":"313.6782","MEAN_MOTION_DDOT":"0.0000000000000","REF_FRAME":"TEME","LAUNCH_DATE":"2022-08-19","REV_AT_EPOCH":"1931","CENTER_NAME":"EARTH","TIME_SYSTEM":"UTC","COUNTRY_CODE":"US","MEAN_ANOMALY":"319.5341","TLE_LINE2":"2 53541  53.2221 313.6782 0002216  40.5816 319.5341 15.08841173 19318","EPHEMERIS_TYPE":"0","OBJECT_ID":"2022-101Q","SEMIMAJOR_AXIS":"6917.877","DECAY_DATE":null,"ECCENTRICITY":"0.00022160","MEAN_MOTION_DOT":"0.00002305","PERIAPSIS":"538.209","GP_ID":"220971606","FILE":"3711774","MEAN_MOTION":"15.08841173","CLASSIFICATION_TYPE":"U","RCS_SIZE":"MEDIUM","ELEMENT_SET_NO":"999","PERIOD":"95.437","MEAN_ELEMENT_THEORY":"SGP4","OBJECT_NAME":"STARLINK-4485","SITE":"AFETR","TLE_LINE1":"1 53541U 22101Q   22353.62450376  .00002305  00000-0  16290-3 0  9993","INCLINATION":"53.2221","BSTAR":"0.00016290000000","OBJECT_TYPE":"PAYLOAD","EPOCH":"2022-12-19T14:59:17.124864","ARG_OF_PERICENTER":"40.5816","APOAPSIS":"541.275","NORAD_CAT_ID":"53541"},{"TLE_LINE2":"2 53542  53.2154 303.7729 0001905  45.3906 314.7242 15.08864116 19445","COUNTRY_CODE":"US","MEAN_ANOMALY":"314.7242","EPHEMERIS_TYPE":"0","SEMIMAJOR_AXIS":"6917.807","OBJECT_ID":"2022-101R","DECAY_DATE":null,"ECCENTRICITY":"0.00019050","FILE":"3711774","GP_ID":"220970117","PERIAPSIS":"538.354","MEAN_MOTION":"15.08864116","MEAN_MOTION_DOT":"0.00017570","CLASSIFICATION_TYPE":"U","RA_OF_ASC_NODE":"303.7729","MEAN_MOTION_DDOT":"0.0000000000000","REF_FRAME":"TEME","LAUNCH_DATE":"2022-08-19","REV_AT_EPOCH":"1944","CENTER_NAME":"EARTH","TIME_SYSTEM":"UTC","OBJECT_TYPE":"PAYLOAD","BSTAR":"0.00111850000000","ARG_OF_PERICENTER":"45.3906","EPOCH":"2022-12-19T14:28:49.099584","APOAPSIS":"540.990","NORAD_CAT_ID":"53542","ELEMENT_SET_NO":"999","RCS_SIZE":"LARGE","OBJECT_NAME":"STARLINK-4489","MEAN_ELEMENT_THEORY":"SGP4","PERIOD":"95.436","TLE_LINE1":"1 53542U 22101R   22353.60334606  .00017570  00000-0  11185-2 0  9996","SITE":"AFETR","INCLINATION":"53.2154"},{"OBJECT_TYPE":"PAYLOAD","BSTAR":"0.00076662000000","EPOCH":"2022-12-19T22:00:00.999936","ARG_OF_PERICENTER":"96.4601","NORAD_CAT_ID":"53543","APOAPSIS":"540.832","TLE_LINE1":"1 53543U 22101S   22353.91667824  .00011936  00000-0  76662-3 0  9994","SITE":"AFETR","INCLINATION":"53.2167","RCS_SIZE":"LARGE","ELEMENT_SET_NO":"999","PERIOD":"95.437","MEAN_ELEMENT_THEORY":"SGP4","OBJECT_NAME":"STARLINK-4297","DECAY_DATE":null,"ECCENTRICITY":"0.00016020","MEAN_MOTION_DOT":"0.00011936","GP_ID":"220970330","MEAN_MOTION":"15.08846938","FILE":"3711774","PERIAPSIS":"538.616","CLASSIFICATION_TYPE":"U","COUNTRY_CODE":"US","MEAN_ANOMALY":"86.4465","TLE_LINE2":"2 53543  53.2167 302.4332 0001602  96.4601  86.4465 15.08846938  1307","EPHEMERIS_TYPE":"0","OBJECT_ID":"2022-101S","SEMIMAJOR_AXIS":"6917.859","TIME_SYSTEM":"UTC","MEAN_MOTION_DDOT":"0.0000000000000","REF_FRAME":"TEME","RA_OF_ASC_NODE":"302.4332","LAUNCH_DATE":"2022-08-19","CENTER_NAME":"EARTH","REV_AT_EPOCH":"130"},{"NORAD_CAT_ID":"53544","APOAPSIS":"541.336","ARG_OF_PERICENTER":"45.3700","EPOCH":"2022-12-19T20:39:45.310176","OBJECT_TYPE":"PAYLOAD","BSTAR":"0.00034279000000","INCLINATION":"53.2153","TLE_LINE1":"1 53544U 22101T   22353.86094109  .00005174  00000-0  34279-3 0  9994","SITE":"AFETR","OBJECT_NAME":"STARLINK-4303","MEAN_ELEMENT_THEORY":"SGP4","PERIOD":"95.437","ELEMENT_SET_NO":"999","RCS_SIZE":"LARGE","CLASSIFICATION_TYPE":"U","GP_ID":"220971397","MEAN_MOTION":"15.08853511","FILE":"3711774","PERIAPSIS":"538.072","MEAN_MOTION_DOT":"0.00005174","ECCENTRICITY":"0.00023590","DECAY_DATE":null,"SEMIMAJOR_AXIS":"6917.839","OBJECT_ID":"2022-101T","EPHEMERIS_TYPE":"0","TLE_LINE2":"2 53544  53.2153 302.6187 0002359  45.3700 314.7484 15.08853511 19465","MEAN_ANOMALY":"314.7484","COUNTRY_CODE":"US","TIME_SYSTEM":"UTC","CENTER_NAME":"EARTH","REV_AT_EPOCH":"1946","LAUNCH_DATE":"2022-08-19","RA_OF_ASC_NODE":"302.6187","MEAN_MOTION_DDOT":"0.0000000000000","REF_FRAME":"TEME"},{"TIME_SYSTEM":"UTC","MEAN_MOTION_DDOT":"0.0000000000000","REF_FRAME":"TEME","RA_OF_ASC_NODE":"303.7594","LAUNCH_DATE":"2022-08-19","REV_AT_EPOCH":"1944","CENTER_NAME":"EARTH","DECAY_DATE":null,"ECCENTRICITY":"0.00023710","GP_ID":"220971184","FILE":"3711774","MEAN_MOTION":"15.08839600","PERIAPSIS":"538.106","MEAN_MOTION_DOT":"0.00000283","CLASSIFICATION_TYPE":"U","TLE_LINE2":"2 53545  53.2176 303.7594 0002371  42.2691 317.8483 15.08839600 19448","MEAN_ANOMALY":"317.8483","COUNTRY_CODE":"US","EPHEMERIS_TYPE":"0","SEMIMAJOR_AXIS":"6917.882","OBJECT_ID":"2022-101U","TLE_LINE1":"1 53545U 22101U   22353.60702756  .00000283  00000-0  35883-4 0  9990","SITE":"AFETR","INCLINATION":"53.2176","ELEMENT_SET_NO":"999","RCS_SIZE":"LARGE","OBJECT_NAME":"STARLINK-4475","MEAN_ELEMENT_THEORY":"SGP4","PERIOD":"95.438","OBJECT_TYPE":"PAYLOAD","BSTAR":"0.00003588300000","ARG_OF_PERICENTER":"42.2691","EPOCH":"2022-12-19T14:34:07.181184","NORAD_CAT_ID":"53545","APOAPSIS":"541.387"},{"LAUNCH_DATE":"2022-08-19","RA_OF_ASC_NODE":"294.7442","MEAN_MOTION_DDOT":"0.0000000000000","REF_FRAME":"TEME","REV_AT_EPOCH":"1885","CENTER_NAME":"EARTH","TIME_SYSTEM":"UTC","COUNTRY_CODE":"US","MEAN_ANOMALY":"305.2383","TLE_LINE2":"2 53546  53.2174 294.7442 0002000  54.8797 305.2383 15.08843137 18857","OBJECT_ID":"2022-101V","SEMIMAJOR_AXIS":"6917.871","EPHEMERIS_TYPE":"0","ECCENTRICITY":"0.00020000","DECAY_DATE":null,"CLASSIFICATION_TYPE":"U","MEAN_MOTION_DOT":"0.00000531","GP_ID":"220937342","FILE":"3711365","MEAN_MOTION":"15.08843137","PERIAPSIS":"538.352","PERIOD":"95.437","MEAN_ELEMENT_THEORY":"SGP4","OBJECT_NAME":"STARLINK-4477","RCS_SIZE":"LARGE","ELEMENT_SET_NO":"999","SITE":"AFETR","TLE_LINE1":"1 53546U 22101V   22353.28037295  .00000531  00000-0  51483-4 0  9994","INCLINATION":"53.2174","BSTAR":"0.00005148300000","OBJECT_TYPE":"PAYLOAD","NORAD_CAT_ID":"53546","APOAPSIS":"541.119","EPOCH":"2022-12-19T06:43:44.222880","ARG_OF_PERICENTER":"54.8797"},{"TIME_SYSTEM":"UTC","MEAN_MOTION_DDOT":"0.0000000000000","REF_FRAME":"TEME","RA_OF_ASC_NODE":"302.5985","LAUNCH_DATE":"2022-08-19","REV_AT_EPOCH":"1946","CENTER_NAME":"EARTH","DECAY_DATE":null,"ECCENTRICITY":"0.00018780","GP_ID":"220970762","PERIAPSIS":"538.414","FILE":"3711774","MEAN_MOTION":"15.08850674","MEAN_MOTION_DOT":"0.00004855","CLASSIFICATION_TYPE":"U","TLE_LINE2":"2 53547  53.2150 302.5985 0001878  50.9821 309.1339 15.08850674 19465","MEAN_ANOMALY":"309.1339","COUNTRY_CODE":"US","EPHEMERIS_TYPE":"0","SEMIMAJOR_AXIS":"6917.848","OBJECT_ID":"2022-101W","SITE":"AFETR","TLE_LINE1":"1 53547U 22101W   22353.86462005  .00004855  00000-0  32281-3 0  9997","INCLINATION":"53.2150","ELEMENT_SET_NO":"999","RCS_SIZE":"LARGE","MEAN_ELEMENT_THEORY":"SGP4","OBJECT_NAME":"STARLINK-4474","PERIOD":"95.437","OBJECT_TYPE":"PAYLOAD","BSTAR":"0.00032281000000","ARG_OF_PERICENTER":"50.9821","EPOCH":"2022-12-19T20:45:03.172320","APOAPSIS":"541.012","NORAD_CAT_ID":"53547"},{"BSTAR":"-0.00000270850000","OBJECT_TYPE":"PAYLOAD","NORAD_CAT_ID":"53548","APOAPSIS":"540.645","EPOCH":"2022-12-19T21:59:13.466112","ARG_OF_PERICENTER":"51.8400","SITE":"AFETR","TLE_LINE1":"1 53548U 22101X   22353.91612808 -.00000331  00000-0 -27085-5 0  9997","INCLINATION":"53.2198","PERIOD":"95.436","OBJECT_NAME":"STARLINK-4513","MEAN_ELEMENT_THEORY":"SGP4","RCS_SIZE":"LARGE","ELEMENT_SET_NO":"999","ECCENTRICITY":"0.00013750","DECAY_DATE":null,"CLASSIFICATION_TYPE":"U","MEAN_MOTION_DOT":"-0.00000331","GP_ID":"220942926","MEAN_MOTION":"15.08856905","FILE":"3711663","PERIAPSIS":"538.743","MEAN_ANOMALY":"308.2715","COUNTRY_CODE":"US","TLE_LINE2":"2 53548  53.2198 302.3686 0001375  51.8400 308.2715 15.08856905 18807","OBJECT_ID":"2022-101X","SEMIMAJOR_AXIS":"6917.829","EPHEMERIS_TYPE":"0","TIME_SYSTEM":"UTC","LAUNCH_DATE":"2022-08-19","MEAN_MOTION_DDOT":"0.0000000000000","REF_FRAME":"TEME","RA_OF_ASC_NODE":"302.3686","REV_AT_EPOCH":"1880","CENTER_NAME":"EARTH"},{"BSTAR":"0.00009679600000","OBJECT_TYPE":"PAYLOAD","ARG_OF_PERICENTER":"49.9113","EPOCH":"2022-12-19T14:12:54.685440","NORAD_CAT_ID":"53549","APOAPSIS":"540.870","TLE_LINE1":"1 53549U 22101Y   22353.59229960  .00001253  00000-0  96796-4 0  9991","SITE":"AFETR","INCLINATION":"53.2178","ELEMENT_SET_NO":"999","RCS_SIZE":"LARGE","MEAN_ELEMENT_THEORY":"SGP4","OBJECT_NAME":"STARLINK-4516","PERIOD":"95.437","DECAY_DATE":null,"ECCENTRICITY":"0.00016410","MEAN_MOTION":"15.08843442","GP_ID":"220971607","FILE":"3711774","PERIAPSIS":"538.600","MEAN_MOTION_DOT":"0.00001253","CLASSIFICATION_TYPE":"U","TLE_LINE2":"2 53549  53.2178 303.8238 0001641  49.9113 310.2023 15.08843442 19415","MEAN_ANOMALY":"310.2023","COUNTRY_CODE":"US","EPHEMERIS_TYPE":"0","SEMIMAJOR_AXIS":"6917.870","OBJECT_ID":"2022-101Y","TIME_SYSTEM":"UTC","REF_FRAME":"TEME","MEAN_MOTION_DDOT":"0.0000000000000","RA_OF_ASC_NODE":"303.8238","LAUNCH_DATE":"2022-08-19","CENTER_NAME":"EARTH","REV_AT_EPOCH":"1941"}];
